STARLINK-35767          
1 67058U 25294AE  26001.91668981 -.00126693  00000+0 -21849-2 0  9999
2 67058  43.0012  60.3039 0001382 265.3008 247.7335 15.50629642  3348
HULIANWANG DIGUI-119    
1 67059U 25295A   26001.97113515  .00000556  00000+0  30564-3 0  9997
2 67059  50.0043 286.9243 0013917 318.0000  41.9845 14.24624873  3003
HULIANWANG DIGUI-120    
1 67060U 25295B   26001.96624708  .00000596  00000+0  32271-3 0  9990
2 67060  50.0051 286.8991 0013286 318.6301  41.3605 14.24626666  3002
HULIANWANG DIGUI-121    
1 67061U 25295C   26001.96800297  .00000590  00000+0  32006-3 0  9990
2 67061  50.0014 286.8940 0013192 317.8665  42.1233 14.24643493  3009
HULIANWANG DIGUI-122    
1 67062U 25295D   26001.96533327  .00000606  00000+0  32701-3 0  9998
2 67062  50.0046 286.8921 0013032 323.7942  36.2088 14.24618709  3005
HULIANWANG DIGUI-123    
1 67063U 25295E   26001.96431193  .00000608  00000+0  32780-3 0  9996
2 67063  50.0052 286.8899 0011972 323.3358  36.6735 14.24624341  3007
HULIANWANG DIGUI-124    
1 67064U 25295F   26001.96334339  .00000605  00000+0  32653-3 0  9997
2 67064  50.0011 286.8664 0011843 316.9972  43.0015 14.24628302  3004
HULIANWANG DIGUI-125    
1 67065U 25295G   26001.96226517  .00000610  00000+0  32886-3 0  9990
2 67065  50.0003 286.8576 0011969 324.9785  35.0340 14.24636199  3003
HULIANWANG DIGUI-126    
1 67066U 25295H   26001.96125591  .00000615  00000+0  33071-3 0  9993
2 67066  50.0006 286.8521 0011259 318.5298  41.4760 14.24656543  3009
HULIANWANG DIGUI-127    
1 67067U 25295J   26001.67967416 -.00001372  00000+0 -51758-3 0  9997
2 67067  50.0046 288.0390 0010719 323.8309  36.1878 14.24667899  2965
CZ-12 R/B               
1 67068U 25295K   26001.94371504  .00000111  00000+0  84437-4 0  9994
2 67068  49.9937 284.7119 0056870 208.3117 151.4708 14.41134082  3029
XIWANG-5 02             
1 67069U 25296A   26002.00602503  .00018752  00000+0  10507-2 0  9995
2 67069  41.3528 346.2971 0002847 315.8447  44.2145 15.12997034  3035
