CCSDS_OMM_VERS = 2.0
CREATION_DATE  = 
ORIGINATOR     = 

OBJECT_NAME    = STARLINK-35767
OBJECT_ID      = 2025-294AE
CENTER_NAME    = EARTH
REF_FRAME      = TEME
TIME_SYSTEM    = UTC
MEAN_ELEMENT_THEORY = SGP/SGP4

EPOCH          = 2026-01-01T22:00:01.999584
MEAN_MOTION    = 15.50629642
ECCENTRICITY   = .00013829
INCLINATION    = 43.0012
RA_OF_ASC_NODE = 60.3039
ARG_OF_PERICENTER = 265.3008
MEAN_ANOMALY   = 247.7335

EPHEMERIS_TYPE = 0
CLASSIFICATION_TYPE = U
NORAD_CAT_ID   = 67058
ELEMENT_SET_NO = 999
REV_AT_EPOCH   = 334
BSTAR          = -.21848832E-2
MEAN_MOTION_DOT = -.126693E-2
MEAN_MOTION_DDOT = 0

CCSDS_OMM_VERS = 2.0
CREATION_DATE  = 
ORIGINATOR     = 

OBJECT_NAME    = HULIANWANG DIGUI-119
OBJECT_ID      = 2025-295A
CENTER_NAME    = EARTH
REF_FRAME      = TEME
TIME_SYSTEM    = UTC
MEAN_ELEMENT_THEORY = SGP/SGP4

EPOCH          = 2026-01-01T23:18:26.076960
MEAN_MOTION    = 14.24624873
ECCENTRICITY   = .00139179
INCLINATION    = 50.0043
RA_OF_ASC_NODE = 286.9243
ARG_OF_PERICENTER = 318.0000
MEAN_ANOMALY   = 41.9845

EPHEMERIS_TYPE = 0
CLASSIFICATION_TYPE = U
NORAD_CAT_ID   = 67059
ELEMENT_SET_NO = 999
REV_AT_EPOCH   = 300
BSTAR          = .30563742E-3
MEAN_MOTION_DOT = .556E-5
MEAN_MOTION_DDOT = 0

CCSDS_OMM_VERS = 2.0
CREATION_DATE  = 
ORIGINATOR     = 

OBJECT_NAME    = HULIANWANG DIGUI-120
OBJECT_ID      = 2025-295B
CENTER_NAME    = EARTH
REF_FRAME      = TEME
TIME_SYSTEM    = UTC
MEAN_ELEMENT_THEORY = SGP/SGP4

EPOCH          = 2026-01-01T23:11:23.747712
MEAN_MOTION    = 14.24626666
ECCENTRICITY   = .00132863
INCLINATION    = 50.0051
RA_OF_ASC_NODE = 286.8991
ARG_OF_PERICENTER = 318.6301
MEAN_ANOMALY   = 41.3605

EPHEMERIS_TYPE = 0
CLASSIFICATION_TYPE = U
NORAD_CAT_ID   = 67060
ELEMENT_SET_NO = 999
REV_AT_EPOCH   = 300
BSTAR          = .32270882E-3
MEAN_MOTION_DOT = .596E-5
MEAN_MOTION_DDOT = 0

CCSDS_OMM_VERS = 2.0
CREATION_DATE  = 
ORIGINATOR     = 

OBJECT_NAME    = HULIANWANG DIGUI-121
OBJECT_ID      = 2025-295C
CENTER_NAME    = EARTH
REF_FRAME      = TEME
TIME_SYSTEM    = UTC
MEAN_ELEMENT_THEORY = SGP/SGP4

EPOCH          = 2026-01-01T23:13:55.456608
MEAN_MOTION    = 14.24643493
ECCENTRICITY   = .00131921
INCLINATION    = 50.0014
RA_OF_ASC_NODE = 286.8940
ARG_OF_PERICENTER = 317.8665
MEAN_ANOMALY   = 42.1233

EPHEMERIS_TYPE = 0
CLASSIFICATION_TYPE = U
NORAD_CAT_ID   = 67061
ELEMENT_SET_NO = 999
REV_AT_EPOCH   = 300
BSTAR          = .32006041E-3
MEAN_MOTION_DOT = .59E-5
MEAN_MOTION_DDOT = 0

CCSDS_OMM_VERS = 2.0
CREATION_DATE  = 
ORIGINATOR     = 

OBJECT_NAME    = HULIANWANG DIGUI-122
OBJECT_ID      = 2025-295D
CENTER_NAME    = EARTH
REF_FRAME      = TEME
TIME_SYSTEM    = UTC
MEAN_ELEMENT_THEORY = SGP/SGP4

EPOCH          = 2026-01-01T23:10:04.794528
MEAN_MOTION    = 14.24618709
ECCENTRICITY   = .00130321
INCLINATION    = 50.0046
RA_OF_ASC_NODE = 286.8921
ARG_OF_PERICENTER = 323.7942
MEAN_ANOMALY   = 36.2088

EPHEMERIS_TYPE = 0
CLASSIFICATION_TYPE = U
NORAD_CAT_ID   = 67062
ELEMENT_SET_NO = 999
REV_AT_EPOCH   = 300
BSTAR          = .32700689E-3
MEAN_MOTION_DOT = .606E-5
MEAN_MOTION_DDOT = 0

CCSDS_OMM_VERS = 2.0
CREATION_DATE  = 
ORIGINATOR     = 

OBJECT_NAME    = HULIANWANG DIGUI-123
OBJECT_ID      = 2025-295E
CENTER_NAME    = EARTH
REF_FRAME      = TEME
TIME_SYSTEM    = UTC
MEAN_ELEMENT_THEORY = SGP/SGP4

EPOCH          = 2026-01-01T23:08:36.550752
MEAN_MOTION    = 14.24624341
ECCENTRICITY   = .00119723
INCLINATION    = 50.0052
RA_OF_ASC_NODE = 286.8899
ARG_OF_PERICENTER = 323.3358
MEAN_ANOMALY   = 36.6735

EPHEMERIS_TYPE = 0
CLASSIFICATION_TYPE = U
NORAD_CAT_ID   = 67063
ELEMENT_SET_NO = 999
REV_AT_EPOCH   = 300
BSTAR          = .32780351E-3
MEAN_MOTION_DOT = .608E-5
MEAN_MOTION_DDOT = 0

CCSDS_OMM_VERS = 2.0
CREATION_DATE  = 
ORIGINATOR     = 

OBJECT_NAME    = HULIANWANG DIGUI-124
OBJECT_ID      = 2025-295F
CENTER_NAME    = EARTH
REF_FRAME      = TEME
TIME_SYSTEM    = UTC
MEAN_ELEMENT_THEORY = SGP/SGP4

EPOCH          = 2026-01-01T23:07:12.868896
MEAN_MOTION    = 14.24628302
ECCENTRICITY   = .00118432
INCLINATION    = 50.0011
RA_OF_ASC_NODE = 286.8664
ARG_OF_PERICENTER = 316.9972
MEAN_ANOMALY   = 43.0015

EPHEMERIS_TYPE = 0
CLASSIFICATION_TYPE = U
NORAD_CAT_ID   = 67064
ELEMENT_SET_NO = 999
REV_AT_EPOCH   = 300
BSTAR          = .32653086E-3
MEAN_MOTION_DOT = .605E-5
MEAN_MOTION_DDOT = 0

CCSDS_OMM_VERS = 2.0
CREATION_DATE  = 
ORIGINATOR     = 

OBJECT_NAME    = HULIANWANG DIGUI-125
OBJECT_ID      = 2025-295G
CENTER_NAME    = EARTH
REF_FRAME      = TEME
TIME_SYSTEM    = UTC
MEAN_ELEMENT_THEORY = SGP/SGP4

EPOCH          = 2026-01-01T23:05:39.710688
MEAN_MOTION    = 14.24636199
ECCENTRICITY   = .00119692
INCLINATION    = 50.0003
RA_OF_ASC_NODE = 286.8576
ARG_OF_PERICENTER = 324.9785
MEAN_ANOMALY   = 35.0340

EPHEMERIS_TYPE = 0
CLASSIFICATION_TYPE = U
NORAD_CAT_ID   = 67065
ELEMENT_SET_NO = 999
REV_AT_EPOCH   = 300
BSTAR          = .32885941E-3
MEAN_MOTION_DOT = .61E-5
MEAN_MOTION_DDOT = 0

CCSDS_OMM_VERS = 2.0
CREATION_DATE  = 
ORIGINATOR     = 

OBJECT_NAME    = HULIANWANG DIGUI-126
OBJECT_ID      = 2025-295H
CENTER_NAME    = EARTH
REF_FRAME      = TEME
TIME_SYSTEM    = UTC
MEAN_ELEMENT_THEORY = SGP/SGP4

EPOCH          = 2026-01-01T23:04:12.510624
MEAN_MOTION    = 14.24656543
ECCENTRICITY   = .00112594
INCLINATION    = 50.0006
RA_OF_ASC_NODE = 286.8521
ARG_OF_PERICENTER = 318.5298
MEAN_ANOMALY   = 41.4760

EPHEMERIS_TYPE = 0
CLASSIFICATION_TYPE = U
NORAD_CAT_ID   = 67066
ELEMENT_SET_NO = 999
REV_AT_EPOCH   = 300
BSTAR          = .33071328E-3
MEAN_MOTION_DOT = .615E-5
MEAN_MOTION_DDOT = 0

CCSDS_OMM_VERS = 2.0
CREATION_DATE  = 
ORIGINATOR     = 

OBJECT_NAME    = HULIANWANG DIGUI-127
OBJECT_ID      = 2025-295J
CENTER_NAME    = EARTH
REF_FRAME      = TEME
TIME_SYSTEM    = UTC
MEAN_ELEMENT_THEORY = SGP/SGP4

EPOCH          = 2026-01-01T16:18:43.847424
MEAN_MOTION    = 14.24667899
ECCENTRICITY   = .00107192
INCLINATION    = 50.0046
RA_OF_ASC_NODE = 288.0390
ARG_OF_PERICENTER = 323.8309
MEAN_ANOMALY   = 36.1878

EPHEMERIS_TYPE = 0
CLASSIFICATION_TYPE = U
NORAD_CAT_ID   = 67067
ELEMENT_SET_NO = 999
REV_AT_EPOCH   = 296
BSTAR          = -.51758169E-3
MEAN_MOTION_DOT = -.1372E-4
MEAN_MOTION_DDOT = 0

CCSDS_OMM_VERS = 2.0
CREATION_DATE  = 
ORIGINATOR     = 

OBJECT_NAME    = CZ-12 R/B
OBJECT_ID      = 2025-295K
CENTER_NAME    = EARTH
REF_FRAME      = TEME
TIME_SYSTEM    = UTC
MEAN_ELEMENT_THEORY = SGP/SGP4

EPOCH          = 2026-01-01T22:38:56.979456
MEAN_MOTION    = 14.41134082
ECCENTRICITY   = .00568701
INCLINATION    = 49.9937
RA_OF_ASC_NODE = 284.7119
ARG_OF_PERICENTER = 208.3117
MEAN_ANOMALY   = 151.4708

EPHEMERIS_TYPE = 0
CLASSIFICATION_TYPE = U
NORAD_CAT_ID   = 67068
ELEMENT_SET_NO = 999
REV_AT_EPOCH   = 302
BSTAR          = .84436985E-4
MEAN_MOTION_DOT = .111E-5
MEAN_MOTION_DDOT = 0

CCSDS_OMM_VERS = 2.0
CREATION_DATE  = 
ORIGINATOR     = 

OBJECT_NAME    = XIWANG-5 02
OBJECT_ID      = 2025-296A
CENTER_NAME    = EARTH
REF_FRAME      = TEME
TIME_SYSTEM    = UTC
MEAN_ELEMENT_THEORY = SGP/SGP4

EPOCH          = 2026-01-02T00:08:40.562592
MEAN_MOTION    = 15.12997034
ECCENTRICITY   = .00028475
INCLINATION    = 41.3528
RA_OF_ASC_NODE = 346.2971
ARG_OF_PERICENTER = 315.8447
MEAN_ANOMALY   = 44.2145

EPHEMERIS_TYPE = 0
CLASSIFICATION_TYPE = U
NORAD_CAT_ID   = 67069
ELEMENT_SET_NO = 999
REV_AT_EPOCH   = 303
BSTAR          = .10507456E-2
MEAN_MOTION_DOT = .18752E-3
MEAN_MOTION_DDOT = 0

